{
    "links": {
        "self": "http://www.neowsapp.com/rest/v1/neo/3736199?api_key=iIulBulltgU6a56xZRHN4H3l9WmuAYTsLGpBGhQ2"
    },
    "id": "3736199",
    "neo_reference_id": "3736199",
    "name": "(2015 XO128)",
    "designation": "2015 XO128",
    "nasa_jpl_url": "http://ssd.jpl.nasa.gov/sbdb.cgi?sstr=3736199",
    "absolute_magnitude_h": 24.7,
    "estimated_diameter": {
        "kilometers": {
            "estimated_diameter_min": 0.0305179233,
            "estimated_diameter_max": 0.0682401509
        },
        "meters": {
            "estimated_diameter_min": 30.5179232594,
            "estimated_diameter_max": 68.2401509401
        },
        "miles": {
            "estimated_diameter_min": 0.0189629525,
            "estimated_diameter_max": 0.0424024508
        },
        "feet": {
            "estimated_diameter_min": 100.1244233463,
            "estimated_diameter_max": 223.8850168104
        }
    },
    "is_potentially_hazardous_asteroid": false,
    "close_approach_data": [
        {
            "close_approach_date": "2015-11-23",
            "close_approach_date_full": "2015-Nov-23 11:08",
            "epoch_date_close_approach": 1448276880000,
            "relative_velocity": {
                "kilometers_per_second": "10.0521982992",
                "kilometers_per_hour": "36187.913877264",
                "miles_per_hour": "22485.76237557"
            },
            "miss_distance": {
                "astronomical": "0.0727823658",
                "lunar": "28.3123402962",
                "kilometers": "10888086.897240846",
                "miles": "6765543.4755258348"
            },
            "orbiting_body": "Earth"
        },
        {
            "close_approach_date": "2017-08-09",
            "close_approach_date_full": "2017-Aug-09 20:40",
            "epoch_date_close_approach": 1502311200000,
            "relative_velocity": {
                "kilometers_per_second": "11.2261147129",
                "kilometers_per_hour": "40414.0129663378",
                "miles_per_hour": "25111.6960012225"
            },
            "miss_distance": {
                "astronomical": "0.1042432533",
                "lunar": "40.5506255337",
                "kilometers": "15594568.655550471",
                "miles": "9690015.6305636598"
            },
            "orbiting_body": "Earth"
        },
        {
            "close_approach_date": "2069-07-23",
            "close_approach_date_full": "2069-Jul-23 00:22",
            "epoch_date_close_approach": 3141764520000,
            "relative_velocity": {
                "kilometers_per_second": "19.7385120865",
                "kilometers_per_hour": "71058.6435115757",
                "miles_per_hour": "44153.077686401"
            },
            "miss_distance": {
                "astronomical": "0.3935405912",
                "lunar": "153.0872899768",
                "kilometers": "58872834.202060744",
                "miles": "36581882.8487125072"
            },
            "orbiting_body": "Earth"
        }
    ],
    "orbital_data": {
        "orbit_id": "4",
        "orbit_determination_date": "2017-04-06 08:30:10",
        "first_observation_date": "2015-12-05",
        "last_observation_date": "2015-12-18",
        "data_arc_in_days": 13,
        "observations_used": 18,
        "orbit_uncertainty": "8",
        "minimum_orbit_intersection": ".00756476",
        "jupiter_tisserand_invariant": "4.364",
        "epoch_osculation": "2457363.5",
        "eccentricity": ".3978517815045217",
        "semi_major_axis": "1.547041095253417",
        "inclination": "1.622983150578214",
        "ascending_node_longitude": "134.465358418758",
        "orbital_period": "702.8314751161744",
        "perihelion_distance": ".9315480394461383",
        "perihelion_argument": "239.1608897747285",
        "aphelion_distance": "2.162534151060695",
        "perihelion_time": "2457314.629374728830",
        "mean_anomaly": "25.03221002547317",
        "mean_motion": ".51221382756157",
        "equinox": "J2000",
        "orbit_class": {
            "orbit_class_type": "APO",
            "orbit_class_description": "Near-Earth asteroid orbits which cross the Earth’s orbit similar to that of 1862 Apollo",
            "orbit_class_range": "a (semi-major axis) > 1.0 AU; q (perihelion) < 1.017 AU"
        }
    },
    "is_sentry_object": false
}